      2.10          N: GNSS NAV DATA                        RINEX VERSION / TYPE
fic2rin                                 11/18/2019 00:19:01 PGM / RUN BY / DATE
                                                            END OF HEADER
 2 19 11 17  1 59 44.0-3.482555039227e-04-7.617018127348e-12 0.000000000000e+00
    2.800000000000e+01-1.018750000000e+02 4.474829251743e-09-1.764226507824e+00
   -5.105510354042e-06 1.939217792824e-02 6.889924407005e-06 5.153575649261e+03
    7.184000000000e+03 3.594905138016e-07 1.022118157495e-01 3.166496753693e-07
    9.571707317173e-01 2.413437500000e+02-1.699875996510e+00-7.901400553620e-09
   -1.507205638307e-10 1.000000000000e+00 2.080000000000e+03 0.000000000000e+00
    2.400000000000e+00 0.000000000000e+00-1.769512891769e-08 2.800000000000e+01
    0.000000000000e+00 4.000000000000e+00
16 19 11 17  1 59 44.0-9.388709440827e-05-3.751665644813e-12 0.000000000000e+00
    4.000000000000e+00 1.140937500000e+02 4.041596920163e-09 1.081302945614e+00
    6.211921572685e-06 1.094521873165e-02 7.571652531624e-06 5.153677520752e+03
    7.184000000000e+03-3.352761268616e-08-1.838584949975e+00 1.285225152969e-07
    9.808605482989e-01 2.424062500000e+02 5.801516594967e-01-8.039977754488e-09
   -6.035965707914e-11 1.000000000000e+00 2.080000000000e+03 0.000000000000e+00
    2.400000000000e+00 0.000000000000e+00-1.024454832077e-08 4.000000000000e+00
    0.000000000000e+00 4.000000000000e+00
19 19 11 17  1 59 44.0-2.387631684542e-04 5.229594535194e-12 0.000000000000e+00
    4.000000000000e+00-1.981250000000e+01 4.221961575932e-09 2.780402628553e+00
   -9.797513484955e-07 9.211722295731e-03 1.560896635056e-06 5.153659107208e+03
    7.184000000000e+03 1.788139343262e-07-7.773780968495e-01-1.024454832077e-07
    9.822748594621e-01 3.584687500000e+02 1.528986387026e+00-8.043906489564e-09
   -1.885792836555e-10 1.000000000000e+00 2.080000000000e+03 0.000000000000e+00
    2.400000000000e+00 0.000000000000e+00-1.536682248116e-08 4.000000000000e+00
    0.000000000000e+00 4.000000000000e+00
15 19 11 17  1 59 44.0-2.721357159317e-04 2.728484105319e-12 0.000000000000e+00
    1.900000000000e+01 2.343750000000e+00 5.669879030363e-09-7.636310410294e-01
    3.911554813385e-07 1.200890250038e-02 5.854293704033e-06 5.153584930420e+03
    7.184000000000e+03 1.005828380585e-07 2.163312853704e+00 2.253800630569e-07
    9.278466280563e-01 2.471562500000e+02 8.381691631671e-01-8.641074221140e-09
    1.242908915002e-10 1.000000000000e+00 2.080000000000e+03 0.000000000000e+00
    2.400000000000e+00 0.000000000000e+00-1.117587089539e-08 1.900000000000e+01
    0.000000000000e+00 4.000000000000e+00
31 19 11 17  1 59 44.0-3.687571734190e-06-2.501110429876e-12 0.000000000000e+00
    1.900000000000e+01 3.212500000000e+01 4.558404161545e-09-3.056393379898e+00
    1.719221472740e-06 9.541100473143e-03 1.013092696667e-05 5.153733966827e+03
    7.184000000000e+03-1.378357410431e-07-2.945857318896e+00-5.587935447693e-08
    9.592247828082e-01 1.842500000000e+02 6.377443172964e-02-7.721393055585e-09
   -4.200174954146e-10 1.000000000000e+00 2.080000000000e+03 0.000000000000e+00
    2.400000000000e+00 0.000000000000e+00-1.350417733192e-08 1.900000000000e+01
    0.000000000000e+00 4.000000000000e+00
23 19 11 17  1 59 44.0-1.550926826894e-04 2.273736754432e-12 0.000000000000e+00
    1.900000000000e+01 5.656250000000e+00 5.175572726235e-09-1.306910735404e+00
    4.768371582031e-07 1.324020826723e-02 5.926936864853e-06 5.153714574814e+03
    7.184000000000e+03 2.812594175339e-07 2.241035934291e+00 1.341104507446e-07
    9.432016722270e-01 2.503750000000e+02-2.219745865119e+00-8.245343451651e-09
    1.342913080577e-10 1.000000000000e+00 2.080000000000e+03 0.000000000000e+00
    2.400000000000e+00 0.000000000000e+00-2.048909664154e-08 1.900000000000e+01
    0.000000000000e+00 4.000000000000e+00
21 19 11 17  1 59 44.0-8.495105430484e-05 5.911715561524e-12 0.000000000000e+00
    2.100000000000e+01-1.415937500000e+02 4.476257882680e-09 2.372434158000e+00
   -7.215887308121e-06 2.457177871838e-02 5.878508090973e-06 5.153623447418e+03
    7.184000000000e+03 3.129243850708e-07 1.055694131612e-01 9.313225746155e-09
    9.510167166578e-01 2.569687500000e+02-1.397483895294e+00-7.739965257763e-09
   -2.803688213439e-10 1.000000000000e+00 2.080000000000e+03 0.000000000000e+00
    2.400000000000e+00 0.000000000000e+00-1.024454832077e-08 2.100000000000e+01
    0.000000000000e+00 4.000000000000e+00
29 19 11 17  1 59 44.0 4.233187064528e-05-1.000444171950e-11 0.000000000000e+00
    2.000000000000e+01-1.334375000000e+01 4.148744240422e-09 2.819930515596e-01
   -7.711350917816e-07 1.066467841156e-03 1.616775989532e-06 5.153666925430e+03
    7.184000000000e+03-4.842877388000e-08-8.118901937083e-01-2.793967723846e-08
    9.858070985712e-01 3.610937500000e+02 2.064095119241e+00-8.198912946205e-09
   -9.821837690392e-11 1.000000000000e+00 2.080000000000e+03 0.000000000000e+00
    2.400000000000e+00 0.000000000000e+00-9.778887033463e-09 2.000000000000e+01
    0.000000000000e+00 4.000000000000e+00
 5 19 11 17  2  0  0.0-3.544148057699e-06-4.547473508865e-13 0.000000000000e+00
    8.700000000000e+01-2.587500000000e+01 4.589834042154e-09 7.882843544760e-01
   -1.203268766403e-06 5.843750550412e-03 9.870156645775e-06 5.153548913956e+03
    7.200000000000e+03-1.750886440277e-07 1.186607062970e+00 2.607703208923e-08
    9.506993585243e-01 1.849687500000e+02 8.026138126126e-01-7.978189466472e-09
    4.168030758068e-10 1.000000000000e+00 2.080000000000e+03 0.000000000000e+00
    2.400000000000e+00 0.000000000000e+00-1.117587089539e-08 8.700000000000e+01
    0.000000000000e+00 4.000000000000e+00
 7 19 11 17  2  0  0.0-1.503820531070e-04-8.185452315956e-12 0.000000000000e+00
    5.100000000000e+01 2.600000000000e+01 4.607691928864e-09-2.736315643627e+00
    1.149252057076e-06 1.318464067299e-02 9.737908840179e-06 5.153722686768e+03
    7.200000000000e+03 3.911554813385e-08-2.960617357711e+00-2.328306436539e-07
    9.547288054527e-01 1.894375000000e+02-2.423338370433e+00-7.787467236411e-09
   -3.203704875739e-10 1.000000000000e+00 2.080000000000e+03 0.000000000000e+00
    2.400000000000e+00 0.000000000000e+00-1.117587089539e-08 5.100000000000e+01
    0.000000000000e+00 4.000000000000e+00
22 19 11 17  2  0  0.0-7.721316069365e-04-2.501110429876e-12 0.000000000000e+00
    2.200000000000e+01-3.596875000000e+01 5.116284542359e-09-8.064606698097e-01
   -1.791864633560e-06 6.856366526335e-03 9.305775165558e-06 5.153648975372e+03
    7.200000000000e+03-9.313225746155e-08 1.136400251380e+00 6.332993507385e-08
    9.285696241149e-01 1.850625000000e+02-1.262211946434e+00-8.295702692172e-09
    4.878774649119e-10 1.000000000000e+00 2.080000000000e+03 0.000000000000e+00
    2.400000000000e+00 0.000000000000e+00-1.816079020500e-08 2.200000000000e+01
    0.000000000000e+00 4.000000000000e+00
13 19 11 17  2  0  0.0-3.237323835492e-05 2.273736754432e-12 0.000000000000e+00
    1.700000000000e+01-3.906250000000e+00 4.717696510996e-09-7.482427593600e-01
   -1.229345798492e-07 4.046091344208e-03 6.351619958878e-06 5.153657438278e+03
    7.200000000000e+03-2.793967723846e-08 2.387689777869e+00 4.842877388000e-08
    9.678136011841e-01 2.623125000000e+02 1.187764735877e+00-8.055335537058e-09
   -6.785996949726e-11 1.000000000000e+00 2.080000000000e+03 0.000000000000e+00
    2.400000000000e+00 0.000000000000e+00-1.117587089539e-08 1.700000000000e+01
    0.000000000000e+00 4.000000000000e+00
28 19 11 17  2  0  0.0 7.547801360488e-04-1.591615728103e-12 0.000000000000e+00
    1.500000000000e+01 9.034375000000e+01 4.179816963297e-09 8.912622038711e-01
    4.563480615616e-06 1.910886494443e-02 6.770715117455e-06 5.153712701797e+03
    7.200000000000e+03-2.756714820862e-07-1.834733731819e+00-2.421438694000e-07
    9.798412337947e-01 2.645000000000e+02-1.440337695869e+00-8.220699567991e-09
    5.464513333200e-11 1.000000000000e+00 2.080000000000e+03 0.000000000000e+00
    2.400000000000e+00 0.000000000000e+00-1.117587089539e-08 1.500000000000e+01
    0.000000000000e+00 4.000000000000e+00
14 19 11 17  2  0  0.0-5.007628351450e-05 2.160049916711e-12 0.000000000000e+00
    4.600000000000e+01-1.250000000000e+00 4.909847371994e-09-1.809368182076e-01
   -7.078051567078e-08 1.075132191181e-02 6.789341568947e-06 5.153753879547e+03
    7.200000000000e+03-1.005828380585e-07 2.342084882311e+00 1.303851604462e-07
    9.603566951911e-01 2.520937500000e+02-1.934222843437e+00-8.252843764069e-09
    3.035840740667e-11 1.000000000000e+00 2.080000000000e+03 0.000000000000e+00
    2.400000000000e+00 0.000000000000e+00-9.778887033463e-09 4.600000000000e+01
    0.000000000000e+00 4.000000000000e+00
11 19 11 17  2  0  0.0-4.459763877094e-04 1.114131009672e-11 0.000000000000e+00
    7.800000000000e+01-8.656250000000e+01 5.456298705314e-09-2.871714347024e+00
   -4.297122359276e-06 1.638660265598e-02 2.959743142128e-06 5.153747817993e+03
    7.200000000000e+03 1.471489667892e-07-2.873420388921e-01 1.732259988785e-07
    9.114501017838e-01 2.947187500000e+02 1.969270554103e+00-8.419279268204e-09
   -1.628639267934e-10 1.000000000000e+00 2.080000000000e+03 0.000000000000e+00
    2.400000000000e+00 0.000000000000e+00-1.210719347000e-08 7.800000000000e+01
    0.000000000000e+00 4.000000000000e+00
12 19 11 17  2  0  0.0 1.827552914619e-04-3.979039320257e-12 0.000000000000e+00
    6.700000000000e+01 1.218437500000e+02 3.969093900121e-09 2.964923954469e+00
    6.183981895447e-06 7.604549638927e-03 6.705522537231e-06 5.153799222946e+03
    7.200000000000e+03 3.166496753693e-08-1.857492060183e+00-1.415610313416e-07
    9.805740343302e-01 2.570000000000e+02 1.095224005299e+00-7.742822519637e-09
    5.750239520557e-11 1.000000000000e+00 2.080000000000e+03 0.000000000000e+00
    2.400000000000e+00 0.000000000000e+00-1.257285475731e-08 6.700000000000e+01
    0.000000000000e+00 4.000000000000e+00
